STARLINK-6055           
1 56467U 23064V   26068.53884995  .00002112  00000+0  18471-3 0  9995
2 56467  69.9993 124.9630 0003471 272.0623  88.0138 14.98328608155713
HAWK-8A                 
1 59443U 24066B   26068.40724718  .00002325  00000+0  20899-3 0  9990
2 59443  45.5937  72.3645 0004214 254.4969 105.5447 14.98766556104869
